SENTINEL-2A             
1 40697U 15028A   21204.17258847 -.00000019  00000+0  94951-5 0  9996
2 40697  98.5674 278.6567 0001274  90.4445 269.6893 14.30817338317763
SENTINEL-2A             
1 40697U 15028A   21204.45230865 -.00000019  00000+0  93430-5 0  9998
2 40697  98.5674 278.9324 0001273  89.8109 270.3220 14.30817357317804
SENTINEL-2A             
1 40697U 15028A   21204.80195900 -.00000019  00000+0  92260-5 0  9997
2 40697  98.5674 279.2771 0001272  89.2193 270.9135 14.30817378317859
SENTINEL-2A             
1 40697U 15028A   21205.15160965 -.00000021  00000+0  86480-5 0  9999
2 40697  98.5676 279.6219 0001262  90.9439 269.1900 14.30817362317902
SENTINEL-2A             
1 40697U 15028A   21205.50125989 -.00000022  00000+0  80937-5 0  9997
2 40697  98.5676 279.9665 0001263  90.3915 269.7415 14.30817375317950
SENTINEL-2A             
1 40697U 15028A   21205.85091022 -.00000025  00000+0  69861-5 0  9991
2 40697  98.5675 280.3110 0001267  90.1235 270.0086 14.30817350318006
SENTINEL-2A             
1 40697U 15028A   21206.20056077 -.00000028  00000+0  58834-5 0  9993
2 40697  98.5674 280.6556 0001263  90.1063 270.0266 14.30817349318050
SENTINEL-2A             
1 40697U 15028A   21206.48028111 -.00000026  00000+0  68982-5 0  9994
2 40697  98.5674 280.9314 0001253  90.7627 269.3710 14.30817410318094
SENTINEL-2A             
1 40697U 15028A   21206.62014107 -.00000026  00000+0  67372-5 0  9992
2 40697  98.5674 281.0692 0001255  90.6287 269.5042 14.30817418318119
SENTINEL-2A             
1 40697U 15028A   21206.76000122 -.00000025  00000+0  72495-5 0  9990
2 40697  98.5674 281.2071 0001264  90.5548 269.5781 14.30817436318133
SENTINEL-2A             
1 40697U 15028A   21206.89986138 -.00000024  00000+0  74265-5 0  9990
2 40697  98.5674 281.3450 0001263  90.0436 270.0889 14.30817431318158
SENTINEL-2A             
1 40697U 15028A   21207.03972161 -.00000020  00000+0  89057-5 0  9999
2 40697  98.5674 281.4828 0001269  90.7156 269.4179 14.30817488318178
SENTINEL-2A             
1 40697U 15028A   21207.45930179 -.00000013  00000+0  11761-4 0  9996
2 40697  98.5673 281.8962 0001256  90.9600 269.1735 14.30817629318231
SENTINEL-2A             
1 40697U 15028A   21207.52923171 -.00000012  00000+0  11955-4 0  9992
2 40697  98.5674 281.9652 0001246  90.6190 269.5139 14.30817648318243
SENTINEL-2A             
1 40697U 15028A   21207.73902188 -.00000011  00000+0  12401-4 0  9996
2 40697  98.5674 282.1720 0001254  90.2344 269.8984 14.30817677318274
SENTINEL-2A             
1 40697U 15028A   21208.15860225 -.00000002  00000+0  16020-4 0  9999
2 40697  98.5675 282.5856 0001249  91.2700 268.8636 14.30817808318336
SENTINEL-2A             
1 40697U 15028A   21208.50825231  .00000002  00000+0  17568-4 0  9993
2 40697  98.5674 282.9302 0001250  90.5276 269.6052 14.30817895318389
SENTINEL-2A             
1 40697U 15028A   21208.78797249  .00000004  00000+0  18015-4 0  9990
2 40697  98.5675 283.2060 0001255  89.8124 270.3202 14.30817934318428
SENTINEL-2A             
1 40697U 15028A   21209.20755290  .00000004  00000+0  18332-4 0  9990
2 40697  98.5676 283.6196 0001253  89.7920 270.3409 14.30817973318482
SENTINEL-2A             
1 40697U 15028A   21209.48727308  .00000010  00000+0  20334-4 0  9991
2 40697  98.5675 283.8954 0001250  90.0865 270.0470 14.30818067318520
SENTINEL-2A             
1 40697U 15028A   21209.69706307  .00000011  00000+0  20954-4 0  9999
2 40697  98.5675 284.1022 0001259  89.8476 270.2854 14.30818114318557
SENTINEL-2A             
1 40697U 15028A   21209.83692313  .00000009  00000+0  20119-4 0  9996
2 40697  98.5676 284.2400 0001260  89.9200 270.2122 14.30818088318577
SENTINEL-2A             
1 40697U 15028A   21210.11664343  .00000018  00000+0  23609-4 0  9998
2 40697  98.5675 284.5157 0001258  88.9896 271.1437 14.30818210318616
SENTINEL-2A             
1 40697U 15028A   21210.46629347  .00000026  00000+0  26372-4 0  9990
2 40697  98.5675 284.8604 0001246  88.7845 271.3489 14.30818355318669
SENTINEL-2A             
1 40697U 15028A   21210.81594347  .00000025  00000+0  26309-4 0  9999
2 40697  98.5674 285.2051 0001255  88.2793 271.8531 14.30818399318713
SENTINEL-2A             
1 40697U 15028A   21211.16559386  .00000029  00000+0  27865-4 0  9994
2 40697  98.5675 285.5497 0001238  88.7701 271.3638 14.30818483318768
SENTINEL-2A             
1 40697U 15028A   21211.44531374  .00000031  00000+0  28381-4 0  9999
2 40697  98.5675 285.8254 0001241  88.2100 271.9227 14.30818539318801
SENTINEL-2A             
1 40697U 15028A   21211.79496386  .00000032  00000+0  28997-4 0  9994
2 40697  98.5675 286.1700 0001242  87.0739 273.0588 14.30818609318853
SENTINEL-2A             
1 40697U 15028A   21212.14461411  .00000033  00000+0  29384-4 0  9997
2 40697  98.5675 286.5148 0001220  87.1074 273.0255 14.30818650318905
SENTINEL-2A             
1 40697U 15028A   21212.49426413  .00000032  00000+0  29024-4 0  9998
2 40697  98.5674 286.8593 0001219  87.6548 272.4777 14.30818694318955
SENTINEL-2A             
1 40697U 15028A   21212.77398420  .00000020  00000+0  24357-4 0  9996
2 40697  98.5674 287.1351 0001205  88.4751 271.6566 14.30818606318995
SENTINEL-2A             
1 40697U 15028A   21213.12363455  .00000016  00000+0  22814-4 0  9997
2 40697  98.5673 287.4797 0001208  88.4151 271.7170 14.30818587319045
SENTINEL-2A             
1 40697U 15028A   21213.47328467  .00000014  00000+0  22116-4 0  9992
2 40697  98.5674 287.8243 0001207  89.1298 271.0026 14.30818620319091
SENTINEL-2A             
1 40697U 15028A   21213.75300469  .00000012  00000+0  21326-4 0  9995
2 40697  98.5674 288.1000 0001209  88.5652 271.5666 14.30818627319132
SENTINEL-2A             
1 40697U 15028A   21214.10265502  .00000010  00000+0  20264-4 0  9991
2 40697  98.5674 288.4445 0001224  89.6904 270.4420 14.30818615319185
SENTINEL-2A             
1 40697U 15028A   21214.45230507  .00000008  00000+0  19807-4 0  9994
2 40697  98.5673 288.7892 0001220  88.9018 271.2304 14.30818653319235
SENTINEL-2A             
1 40697U 15028A   21214.73202507  .00000008  00000+0  19821-4 0  9990
2 40697  98.5673 289.0648 0001213  88.2335 271.8986 14.30818699319271
SENTINEL-2A             
1 40697U 15028A   21215.15160542  .00000005  00000+0  18607-4 0  9997
2 40697  98.5674 289.4786 0001214  89.0112 271.1215 14.30818679319335
SENTINEL-2A             
1 40697U 15028A   21215.29146539  .00000004  00000+0  18218-4 0  9999
2 40697  98.5674 289.6164 0001217  88.7423 271.3900 14.30818687319355
SENTINEL-2A             
1 40697U 15028A   21215.50125546  .00000003  00000+0  17749-4 0  9995
2 40697  98.5673 289.8232 0001216  89.3416 270.7909 14.30818699319388
SENTINEL-2A             
1 40697U 15028A   21215.64111546  .00000002  00000+0  17307-4 0  9994
2 40697  98.5673 289.9610 0001214  89.0602 271.0721 14.30818704319407
SENTINEL-2A             
1 40697U 15028A   21216.13062565  .00000000  00000+0  16609-4 0  9997
2 40697  98.5672 290.4435 0001212  89.3060 270.8262 14.30818718319476
SENTINEL-2A             
1 40697U 15028A   21216.48027568 -.00000002  00000+0  15867-4 0  9997
2 40697  98.5671 290.7881 0001213  89.6243 270.5078 14.30818740319523
SENTINEL-2A             
1 40697U 15028A   21216.82992577 -.00000001  00000+0  16333-4 0  9994
2 40697  98.5670 291.1326 0001228  89.4704 270.6619 14.30818792319571
SENTINEL-2A             
1 40697U 15028A   21217.10964589  .00000000  00000+0  16589-4 0  9999
2 40697  98.5669 291.4081 0001209  88.7527 271.3798 14.30818823319610
SENTINEL-2A             
1 40697U 15028A   21217.45929589  .00000001  00000+0  16924-4 0  9992
2 40697  98.5669 291.7527 0001208  88.5646 271.5680 14.30818879319665
SENTINEL-2A             
1 40697U 15028A   21217.80894584 -.00000002  00000+0  15684-4 0  9991
2 40697  98.5669 292.0972 0001207  87.9624 272.1691 14.30818867319713
SENTINEL-2A             
1 40697U 15028A   21218.15859615 -.00000001  00000+0  16390-4 0  9990
2 40697  98.5669 292.4420 0001199  88.1839 271.9490 14.30818906319769
SENTINEL-2A             
1 40697U 15028A   21218.50824604 -.00000002  00000+0  16041-4 0  9993
2 40697  98.5668 292.7866 0001205  88.4687 271.6636 14.30818932319811
SENTINEL-2A             
1 40697U 15028A   21218.78796603 -.00000003  00000+0  15398-4 0  9995
2 40697  98.5668 293.0623 0001198  87.4765 272.6551 14.30818933319855
SENTINEL-2A             
1 40697U 15028A   21219.20754635 -.00000005  00000+0  14870-4 0  9998
2 40697  98.5669 293.4759 0001190  87.1861 272.9465 14.30818941319919
SENTINEL-2A             
1 40697U 15028A   21219.34740624 -.00000005  00000+0  14875-4 0  9991
2 40697  98.5668 293.6138 0001193  87.3865 272.7456 14.30818955319935
SENTINEL-2A             
1 40697U 15028A   21219.55719626 -.00000004  00000+0  14947-4 0  9991
2 40697  98.5668 293.8205 0001197  87.8730 272.2594 14.30818984319965
SENTINEL-2A             
1 40697U 15028A   21219.69705620 -.00000005  00000+0  14817-4 0  9992
2 40697  98.5668 293.9583 0001201  87.6924 272.4397 14.30818993319989
SENTINEL-2A             
1 40697U 15028A   21220.11663649 -.00000007  00000+0  14042-4 0  9997
2 40697  98.5668 294.3718 0001197  87.4187 272.7138 14.30818977320044
SENTINEL-2A             
1 40697U 15028A   21220.46628632 -.00000003  00000+0  15550-4 0  9999
2 40697  98.5669 294.7166 0001184  86.8727 273.2598 14.30819074320095
SENTINEL-2A             
1 40697U 15028A   21220.81593621 -.00000006  00000+0  14233-4 0  9997
2 40697  98.5670 295.0612 0001187  86.6736 273.4579 14.30819061320141
SENTINEL-2A             
1 40697U 15028A   21221.16558640 -.00000003  00000+0  15616-4 0  9991
2 40697  98.5670 295.4057 0001185  86.9998 273.1330 14.30819127320199
SENTINEL-2A             
1 40697U 15028A   21221.37537622 -.00000003  00000+0  15335-4 0  9999
2 40697  98.5671 295.6125 0001187  86.8084 273.3235 14.30819135320224
SENTINEL-2A             
1 40697U 15028A   21221.51523623 -.00000001  00000+0  16076-4 0  9992
2 40697  98.5670 295.7503 0001183  86.5706 273.5616 14.30819175320249
